NORAD_CAT_ID,OBJECT_NAME,OBJECT_TYPE,EPOCH,MEAN_MOTION,ECCENTRICITY,INCLINATION,RA_OF_ASC_NODE,ARG_OF_PERICENTER,MEAN_ANOMALY,BSTAR,MEAN_MOTION_DOT,MEAN_MOTION_DDOT,TLE_LINE0,TLE_LINE1,TLE_LINE2,SEMIMAJOR_AXIS,PERIOD,APOGEE,PERIGEE,DECAYED
52851.0,STARLINK-3809,PAYLOAD,2024-08-05 21:50:45,15.0882428,0.0001481,53.2163,111.3428,91.6928,268.4234,-0.0002641,-4.487e-05,0.0,0 STARLINK-3809,1 52851U 22062X   24218.91024433 -.00004487  00000-0 -26410-3 0  9997,2 52851  53.2163 111.3428 0001481  91.6928 268.4234 15.08824280118739,6917.928,95.439,540.818,538.769,0.0
52851.0,STARLINK-3809,PAYLOAD,2024-08-05 23:26:08,15.08825503,0.0001441,53.2166,111.0439,101.0137,259.1018,-0.00020533,-3.553e-05,0.0,0 STARLINK-3809,1 52851U 22062X   24218.97648410 -.00003553  00000-0 -20533-3 0  9993,2 52851  53.2166 111.0439 0001441 101.0137 259.1018 15.08825503118258,6917.925,95.438,540.787,538.793,0.0
52851.0,STARLINK-3809,PAYLOAD,2024-08-06 20:06:09,15.08836802,0.0001814,53.2173,107.1756,110.6389,249.4798,0.00015619,2.198e-05,0.0,0 STARLINK-3809,1 52851U 22062X   24219.83760582  .00002198  00000-0  15619-3 0  9995,2 52851  53.2173 107.1756 0001814 110.6389 249.4798 15.08836802118872,6917.89,95.438,541.01,538.5,0.0
52851.0,STARLINK-3809,PAYLOAD,2024-08-06 21:41:32,15.08839668,0.0001822,53.2176,106.8784,110.9444,249.1744,0.00022627,3.315e-05,0.0,0 STARLINK-3809,1 52851U 22062X   24219.90384537  .00003315  00000-0  22627-3 0  9994,2 52851  53.2176 106.8784 0001822 110.9444 249.1744 15.08839668118394,6917.881,95.438,541.007,538.486,0.0
52851.0,STARLINK-3809,PAYLOAD,2024-08-07 02:27:41,15.08847915,0.000177,53.2169,105.9859,111.5201,248.598,0.00056807,8.766e-05,0.0,0 STARLINK-3809,1 52851U 22062X   24220.10256489  .00008766  00000-0  56807-3 0  9994,2 52851  53.2169 105.9859 0001770 111.5201 248.5980 15.08847915118916,6917.856,95.437,540.946,538.497,0.0
52851.0,STARLINK-3809,PAYLOAD,2024-08-07 19:56:55,15.08854005,0.0001981,53.2174,102.7138,118.0909,242.0284,0.00050244,7.72e-05,0.0,0 STARLINK-3809,1 52851U 22062X   24220.83120288  .00007720  00000-0  50244-3 0  9999,2 52851  53.2174 102.7138 0001981 118.0909 242.0284 15.08854005119025,6917.838,95.437,541.073,538.332,0.0
52851.0,STARLINK-3809,PAYLOAD,2024-08-08 21:23:05,15.08850788,0.0001639,53.2169,97.9551,113.2824,246.834,0.00013985,1.939e-05,0.0,0 STARLINK-3809,1 52851U 22062X   24221.89103813  .00001939  00000-0  13985-3 0  9998,2 52851  53.2169  97.9551 0001639 113.2824 246.8340 15.08850788119182,6917.847,95.437,540.846,538.579,0.0
52851.0,STARLINK-3809,PAYLOAD,2024-08-08 22:58:28,15.08851239,0.0001312,53.2167,97.6645,90.4586,269.6556,0.00014452,2.014e-05,0.0,0 STARLINK-3809,1 52851U 22062X   24221.95727906  .00002014  00000-0  14452-3 0  9995,2 52851  53.2167  97.6645 0001312  90.4586 269.6556 15.08851239118701,6917.846,95.437,540.619,538.803,0.0
52851.0,STARLINK-3809,PAYLOAD,2024-08-09 08:30:48,15.08839362,0.0001434,53.2162,95.878,96.9108,263.2047,-5.1984e-05,-1.115e-05,0.0,0 STARLINK-3809,1 52851U 22062X   24222.35472253 -.00001115  00000-0 -51984-4 0  9997,2 52851  53.2162  95.8780 0001434  96.9108 263.2047 15.08839362119251,6917.882,95.438,540.739,538.755,0.0
52851.0,STARLINK-3809,PAYLOAD,2024-08-09 19:38:31,15.08820646,8.83e-05,53.2162,93.7961,81.2812,278.828,-0.00019385,-3.37e-05,0.0,0 STARLINK-3809,1 52851U 22062X   24222.81841620 -.00003370  00000-0 -19385-3 0  9999,2 52851  53.2162  93.7961 0000883  81.2812 278.8280 15.08820646119329,6917.94,95.439,540.415,539.194,0.0
52851.0,STARLINK-3809,PAYLOAD,2024-08-09 21:13:54,15.08819304,0.0001611,53.2185,93.5054,113.7737,246.3424,-0.00030052,-5.065e-05,0.0,0 STARLINK-3809,1 52851U 22062X   24222.88465424 -.00005065  00000-0 -30052-3 0  9997,2 52851  53.2185  93.5054 0001611 113.7737 246.3424 15.08819304118847,6917.944,95.439,540.923,538.694,0.0
52851.0,STARLINK-3809,PAYLOAD,2024-08-10 00:24:40,15.08822623,0.0001331,53.2174,92.9062,97.7721,262.3422,-0.00016459,-2.905e-05,0.0,0 STARLINK-3809,1 52851U 22062X   24223.01713753 -.00002905  00000-0 -16459-3 0  9999,2 52851  53.2174  92.9062 0001331  97.7721 262.3422 15.08822623118866,6917.934,95.439,540.719,538.878,0.0
52851.0,STARLINK-3809,PAYLOAD,2024-08-10 21:04:40,15.08848536,0.0001378,53.2168,89.0385,77.4895,282.6252,0.00018818,2.709e-05,0.0,0 STARLINK-3809,1 52851U 22062X   24223.87824719  .00002709  00000-0  18818-3 0  9999,2 52851  53.2168  89.0385 0001378  77.4895 282.6252 15.08848536119488,6917.854,95.437,540.673,538.766,0.0
52851.0,STARLINK-3809,PAYLOAD,2024-08-10 22:40:02,15.08870051,0.0001032,53.2165,88.7406,98.2347,261.8762,0.0005065,7.789e-05,0.0,0 STARLINK-3809,1 52851U 22062X   24223.94447654  .00007789  00000-0  50650-3 0  9999,2 52851  53.2165  88.7406 0001032  98.2347 261.8762 15.08870051119005,6917.789,95.436,540.367,538.94,0.0
52851.0,STARLINK-3809,PAYLOAD,2024-08-11 00:15:25,15.08873288,9.98e-05,53.2164,88.4428,107.5562,252.5539,0.00054264,8.367e-05,0.0,0 STARLINK-3809,1 52851U 22062X   24224.01071380  .00008367  00000-0  54264-3 0  9995,2 52851  53.2164  88.4428 0000998 107.5562 252.5539 15.08873288119507,6917.779,95.435,540.334,538.953,0.0
52851.0,STARLINK-3809,PAYLOAD,2024-08-11 08:12:22,15.0883913,0.0001579,53.2163,86.9577,78.0629,282.0541,0.0001894,2.728e-05,0.0,0 STARLINK-3809,1 52851U 22062X   24224.34193257  .00002728  00000-0  18940-3 0  9995,2 52851  53.2163  86.9577 0001579  78.0629 282.0541 15.08839130119550,6917.883,95.438,540.84,538.656,0.0
52851.0,STARLINK-3809,PAYLOAD,2024-08-11 22:30:50,15.08847877,0.0001141,53.2153,84.2849,69.8515,290.26,0.00034479,5.205e-05,0.0,0 STARLINK-3809,1 52851U 22062X   24224.93808842  .00005205  00000-0  34479-3 0  9991,2 52851  53.2153  84.2849 0001141  69.8515 290.2600 15.08847877119159,6917.856,95.437,540.511,538.932,0.0
52851.0,STARLINK-3809,PAYLOAD,2024-08-12 08:03:09,15.08851963,0.0001053,53.2162,82.5021,68.3143,291.7961,0.00024811,3.664e-05,0.0,0 STARLINK-3809,1 52851U 22062X   24225.33552378  .00003664  00000-0  24811-3 0  9992,2 52851  53.2162  82.5021 0001053  68.3143 291.7961 15.08851963119703,6917.844,95.437,540.437,538.98,0.0
52851.0,STARLINK-3809,PAYLOAD,2024-08-12 14:24:41,15.08856645,7.59e-05,53.2159,81.3071,117.2191,242.8878,-2.834e-05,-7.39e-06,0.0,0 STARLINK-3809,1 52851U 22062X   24225.60047776 -.00000739  00000-0 -28340-4 0  9997,2 52851  53.2159  81.3071 0000759 117.2191 242.8878 15.08856645119256,6917.83,95.437,540.22,539.169,0.0
52851.0,STARLINK-3809,PAYLOAD,2024-08-12 20:46:12,15.08881679,7.8e-05,53.2165,80.1164,113.6858,246.4216,0.00053884,8.308e-05,0.0,0 STARLINK-3809,1 52851U 22062X   24225.86542578  .00008308  00000-0  53884-3 0  9993,2 52851  53.2165  80.1164 0000780 113.6858 246.4216 15.08881679119786,6917.753,95.435,540.158,539.078,0.0
52851.0,STARLINK-3809,PAYLOAD,2024-08-13 07:53:56,15.08833537,0.000149,53.2169,78.0347,90.0027,270.1136,-0.00025241,-4.302e-05,0.0,0 STARLINK-3809,1 52851U 22062X   24226.32912141 -.00004302  00000-0 -25241-3 0  9990,2 52851  53.2169  78.0347 0001490  90.0027 270.1136 15.08833537119857,6917.9,95.438,540.796,538.734,0.0
52851.0,STARLINK-3809,PAYLOAD,2024-08-13 14:15:29,15.08827646,0.0002639,53.2177,76.8452,91.2941,268.8353,-0.00027842,-4.716e-05,0.0,0 STARLINK-3809,1 52851U 22062X   24226.59408947 -.00004716  00000-0 -27842-3 0  9991,2 52851  53.2177  76.8452 0002639  91.2941 268.8353 15.08827646119403,6917.918,95.438,541.609,537.958,0.0
52851.0,STARLINK-3809,PAYLOAD,2024-08-13 20:37:02,15.08801196,0.0001424,53.2139,75.6591,80.5803,279.535,-0.00075975,-0.00012346,0.0,0 STARLINK-3809,1 52851U 22062X   24226.85906012 -.00012346  00000-0 -75975-3 0  9994,2 52851  53.2139  75.6591 0001424  80.5803 279.5350 15.08801196119937,6917.999,95.44,540.849,538.879,0.0
52851.0,STARLINK-3809,PAYLOAD,2024-08-13 23:47:49,15.0879952,0.0001377,53.2147,75.0647,76.4518,283.6627,-0.00067493,-0.00011001,0.0,0 STARLINK-3809,1 52851U 22062X   24226.99154351 -.00011001  00000-0 -67493-3 0  9993,2 52851  53.2147  75.0647 0001377  76.4518 283.6627 15.08799520119464,6918.004,95.44,540.822,538.917,0.0
52851.0,STARLINK-3809,PAYLOAD,2024-08-14 20:27:49,15.08841413,0.0001252,53.2172,71.1956,87.9422,272.1713,0.00040745,6.203e-05,0.0,0 STARLINK-3809,1 52851U 22062X   24227.85265907  .00006203  00000-0  40745-3 0  9996,2 52851  53.2172  71.1956 0001252  87.9422 272.1713 15.08841413120083,6917.876,95.437,540.607,538.875,0.0
52851.0,STARLINK-3809,PAYLOAD,2024-08-15 20:18:36,15.08854323,0.0001389,53.2168,66.7354,83.5414,276.5736,0.00043003,6.565e-05,0.0,0 STARLINK-3809,1 52851U 22062X   24228.84625571  .00006565  00000-0  43003-3 0  9994,2 52851  53.2168  66.7354 0001389  83.5414 276.5736 15.08854323119742,6917.837,95.437,540.662,538.741,0.0
52851.0,STARLINK-3809,PAYLOAD,2024-08-16 05:50:55,15.08849324,0.0001289,53.2158,64.9509,78.6938,281.4199,0.00024745,3.653e-05,0.0,0 STARLINK-3809,1 52851U 22062X   24229.24369403  .00003653  00000-0  24745-3 0  9995,2 52851  53.2158  64.9509 0001289  78.6938 281.4199 15.08849324120293,6917.852,95.437,540.609,538.825,0.0
52851.0,STARLINK-3809,PAYLOAD,2024-08-17 21:35:33,15.08837477,0.0001359,53.2167,57.5171,78.6956,281.4189,-8.8905e-05,-1.702e-05,0.0,0 STARLINK-3809,1 52851U 22062X   24230.89969565 -.00001702  00000-0 -88905-4 0  9997,2 52851  53.2167  57.5171 0001359  78.6956 281.4189 15.08837477120053,6917.888,95.438,540.693,538.813,0.0
52851.0,STARLINK-3809,PAYLOAD,2024-08-17 23:10:56,15.08837637,0.0001397,53.2166,57.2195,80.3767,279.7383,-6.4373e-05,-1.312e-05,0.0,0 STARLINK-3809,1 52851U 22062X   24230.96593605 -.00001312  00000-0 -64373-4 0  9993,2 52851  53.2166  57.2195 0001397  80.3767 279.7383 15.08837637120556,6917.888,95.438,540.719,538.786,0.0
52851.0,STARLINK-3809,PAYLOAD,2024-08-18 19:50:56,15.08858337,0.0001358,53.2181,53.3533,113.2327,246.8808,0.00017768,2.542e-05,0.0,0 STARLINK-3809,1 52851U 22062X   24231.82704327  .00002542  00000-0  17768-3 0  9993,2 52851  53.2181  53.3533 0001358 113.2327 246.8808 15.08858337120682,6917.824,95.436,540.629,538.75,0.0
